{"type":"FeatureCollection","features":[{"type":"Feature","properties":{"Område":"Nora","station":"nora","source":"nora"},"geometry":{"type":"Polygon","coordinates":[[[14.997711,59.524394],[14.998999,59.532838],[15.013762,59.541063],[15.027752,59.545761],[15.036163,59.543978],[15.04509,59.535362],[15.048351,59.520651],[15.046463,59.513641],[15.04818,59.507021],[15.053673,59.50027],[15.055304,59.49221],[15.028524,59.500836],[15.016766,59.501925],[15.004492,59.503754],[15.002174,59.50872],[15.008011,59.516079],[14.997711,59.524394]]]}},{"type":"Feature","geometry":{"type":"Polygon","coordinates":[[[15.217369,59.267022],[15.227808,59.266101],[15.231835,59.265451],[15.234485,59.263988],[15.243387,59.264747],[15.255098,59.274305],[15.262994,59.279558],[15.244447,59.27815],[15.222509,59.277744],[15.213818,59.26778],[15.217369,59.267022]]]},"properties":{"Område":"Öster","station":"orebro","source":"orebro"},"id":1},{"type":"Feature","geometry":{"type":"Polygon","coordinates":[[[15.212027,59.279098],[15.22387,59.276856],[15.228559,59.279712],[15.231805,59.27962],[15.23541,59.281003],[15.237635,59.28263],[15.239076,59.285086],[15.239856,59.286682],[15.241364,59.287504],[15.249651,59.291295],[15.25076,59.293702],[15.252485,59.295023],[15.253488,59.297538],[15.281339,59.304591],[15.278378,59.308994],[15.266576,59.307986],[15.247157,59.298976],[15.236491,59.296412],[15.234569,59.296812],[15.232945,59.296105],[15.227587,59.296084],[15.22423,59.290857],[15.221886,59.287542],[15.217257,59.285516],[15.212027,59.279098]]]},"properties":{"Område":"Norr/Hagaby/Ringstorp","station":"orebro","source":"orebro"},"id":2},{"type":"Feature","geometry":{"type":"Polygon","coordinates":[[[15.195765,59.320163],[15.210716,59.311432],[15.22867,59.312948],[15.231285,59.312191],[15.241315,59.312372],[15.246255,59.315796],[15.247806,59.321526],[15.241248,59.327946],[15.225561,59.32712],[15.195594,59.321477],[15.195765,59.320163]]]},"properties":{"Område":"Lillån","station":"orebro","source":"orebro"},"id":3},{"type":"Feature","geometry":{"type":"Polygon","coordinates":[[[15.188775,59.32328],[15.180661,59.323276],[15.170693,59.304385],[15.180443,59.303474],[15.190911,59.304233],[15.199038,59.305358],[15.194332,59.315036],[15.193476,59.323505],[15.188775,59.32328]]]},"properties":{"Område":"Lundby","station":"orebro","source":"orebro"},"id":5},{"type":"Feature","geometry":{"type":"Polygon","coordinates":[[[15.176201,59.304102],[15.16599,59.29718],[15.16663,59.296724],[15.172453,59.299522],[15.179406,59.295521],[15.189375,59.294137],[15.196789,59.293803],[15.21277,59.29544],[15.212913,59.301923],[15.210915,59.306802],[15.176201,59.304102]]]},"properties":{"Område":"Vivalla/Boglundsängen","station":"orebro","source":"orebro"},"id":6},{"type":"Feature","geometry":{"type":"Polygon","coordinates":[[[15.120478,59.301739],[15.126681,59.291308],[15.140405,59.284255],[15.141993,59.28557],[15.138216,59.288463],[15.147666,59.292196],[15.141106,59.305704],[15.120478,59.301739]]]},"properties":{"Område":"Runnaby","station":"orebro","source":"orebro"},"id":7},{"type":"Feature","geometry":{"type":"Polygon","coordinates":[[[15.148408,59.305722],[15.147252,59.30529],[15.145004,59.303835],[15.148526,59.289236],[15.158421,59.291996],[15.163458,59.295281],[15.172919,59.299586],[15.167462,59.304418],[15.148408,59.305722]]]},"properties":{"Område":"Mellringe","station":"orebro","source":"orebro"},"id":8},{"type":"Feature","geometry":{"type":"Polygon","coordinates":[[[15.158062,59.291996],[15.15843,59.28933],[15.174087,59.284649],[15.180339,59.281483],[15.181675,59.281141],[15.184164,59.284802],[15.188239,59.289706],[15.192901,59.291686],[15.188042,59.293916],[15.184162,59.295156],[15.172453,59.299522],[15.164923,59.296148],[15.158062,59.291996]]]},"properties":{"Område":"Vivalla/Nya Hjärsta","station":"orebro","source":"orebro"},"id":9},{"type":"Feature","geometry":{"type":"Polygon","coordinates":[[[15.230254,59.280266],[15.232981,59.279232],[15.235005,59.278154],[15.236148,59.277907],[15.241382,59.278401],[15.248948,59.279996],[15.251455,59.28112],[15.250751,59.285299],[15.245503,59.287952],[15.242996,59.288446],[15.23983,59.287278],[15.238774,59.286717],[15.238812,59.286238],[15.238109,59.28514],[15.237562,59.284572],[15.237269,59.283973],[15.236605,59.282806],[15.235941,59.281958],[15.234593,59.281439],[15.234144,59.2812],[15.233793,59.280981],[15.233246,59.280821],[15.231385,59.280449],[15.230254,59.280266]]]},"properties":{"Område":"Rynninge","station":"orebro","source":"orebro"},"id":12},{"type":"Feature","geometry":{"type":"Polygon","coordinates":[[[15.240448,59.268535],[15.240843,59.266557],[15.241063,59.266018],[15.240755,59.265119],[15.239964,59.264017],[15.239128,59.262646],[15.238776,59.261904],[15.23962,59.26173],[15.240698,59.261499],[15.243927,59.261247],[15.2472,59.261439],[15.249732,59.261642],[15.2559,59.261657],[15.262681,59.261555],[15.270642,59.261496],[15.270518,59.261723],[15.26428,59.262656],[15.261531,59.269322],[15.25203,59.268962],[15.240448,59.268535]]]},"properties":{"Område":"Näsby","station":"orebro","source":"orebro"},"id":13},{"type":"Feature","geometry":{"type":"Polygon","coordinates":[[[15.260228,59.266523],[15.261031,59.26341],[15.260889,59.261576],[15.260984,59.259331],[15.252049,59.256405],[15.252087,59.256121],[15.252188,59.255993],[15.257821,59.255911],[15.259581,59.255099],[15.261061,59.254244],[15.262563,59.253969],[15.276898,59.255734],[15.285021,59.267247],[15.283368,59.271591],[15.274584,59.271615],[15.260228,59.266523]]]},"properties":{"Område":"Ormesta","station":"orebro","source":"orebro"},"id":14},{"type":"Feature","geometry":{"type":"Polygon","coordinates":[[[15.295544,59.260161],[15.309853,59.253817],[15.364545,59.248892],[15.391534,59.249489],[15.392554,59.25117],[15.369239,59.264426],[15.343997,59.274906],[15.306134,59.274503],[15.295544,59.260161]]]},"properties":{"Område":"Ekeby-Almby","station":"orebro","source":"orebro"},"id":12},{"type":"Feature","geometry":{"type":"Polygon","coordinates":[[[15.208692,59.263288],[15.209381,59.262788],[15.209888,59.261844],[15.210214,59.261029],[15.211192,59.259844],[15.213366,59.258751],[15.216228,59.258233],[15.217424,59.257992],[15.218003,59.257436],[15.219018,59.257288],[15.221191,59.257399],[15.222749,59.257177],[15.224814,59.25714],[15.227604,59.257029],[15.232024,59.257992],[15.236118,59.259159],[15.237313,59.260085],[15.237567,59.261177],[15.238002,59.261659],[15.233618,59.265343],[15.232096,59.266139],[15.229452,59.266417],[15.226771,59.266824],[15.22485,59.267195],[15.222278,59.267065],[15.220793,59.267213],[15.218221,59.266676],[15.213801,59.26588],[15.212363,59.264811],[15.207449,59.267887],[15.207078,59.267609],[15.209958,59.266047],[15.21054,59.26582],[15.21163,59.26458],[15.208692,59.263288]]]},"properties":{"Område":"Sörby","station":"orebro","source":"orebro"},"id":18},{"type":"Feature","geometry":{"type":"Polygon","coordinates":[[[15.181406,59.281279],[15.178932,59.276807],[15.171508,59.277388],[15.166551,59.277042],[15.166503,59.276877],[15.16757,59.276867],[15.172752,59.276949],[15.180209,59.275902],[15.184221,59.275321],[15.18707,59.27532],[15.18761,59.27527],[15.19102,59.2749],[15.19565,59.27448],[15.20054,59.27422],[15.200746,59.274292],[15.20049,59.27335],[15.20062,59.27246],[15.19613,59.2717],[15.195411,59.271336],[15.19038,59.270212],[15.184632,59.269497],[15.188263,59.269817],[15.18971,59.2698],[15.192611,59.270206],[15.197632,59.271582],[15.200722,59.272279],[15.202366,59.271375],[15.204024,59.270902],[15.206223,59.272853],[15.209694,59.275711],[15.211777,59.278213],[15.214207,59.27912],[15.210003,59.279869],[15.207341,59.280479],[15.200244,59.280696],[15.1979,59.2808],[15.19483,59.28102],[15.189879,59.283159],[15.1884,59.28394],[15.1869,59.28456],[15.18598,59.28494],[15.18501,59.28533],[15.184135,59.285559],[15.181406,59.281279]]]},"properties":{"Område":"Väster","station":"orebro","source":"orebro"},"id":21},{"type":"Feature","geometry":{"type":"Polygon","coordinates":[[[15.174083,59.277196],[15.1731,59.27704],[15.1788,59.27627],[15.175939,59.270102],[15.171207,59.270733],[15.171304,59.270267],[15.175821,59.26962],[15.173117,59.265232],[15.172018,59.263996],[15.173601,59.262108],[15.180505,59.263793],[15.192905,59.265142],[15.197347,59.265524],[15.203151,59.270288],[15.203547,59.271074],[15.201524,59.271928],[15.203319,59.272926],[15.205872,59.2736],[15.20593,59.27377],[15.204091,59.273446],[15.201366,59.272756],[15.201098,59.274121],[15.20586,59.27399],[15.2059,59.27416],[15.20092,59.27432],[15.174083,59.277196]]]},"properties":{"Område":"Rosta/Örnsro","station":"orebro","source":"orebro"},"id":22},{"type":"Feature","geometry":{"type":"Polygon","coordinates":[[[15.137023,59.286389],[15.138935,59.281456],[15.106201,59.280221],[15.115814,59.275354],[15.138634,59.273673],[15.14706,59.272894],[15.150407,59.273703],[15.154052,59.275046],[15.156194,59.2757],[15.162382,59.276336],[15.164979,59.276448],[15.167339,59.276738],[15.17186,59.276862],[15.178663,59.276097],[15.178723,59.2766],[15.177003,59.277425],[15.178462,59.280883],[15.174909,59.282067],[15.166654,59.280552],[15.159311,59.285148],[15.152226,59.288872],[15.1454,59.289347],[15.137023,59.286389]]]},"properties":{"Område":"Björkhaga/Oxagen","station":"orebro","source":"orebro"},"id":23},{"type":"Feature","geometry":{"type":"Polygon","coordinates":[[[15.147687,59.273415],[15.144909,59.271398],[15.143594,59.269077],[15.142549,59.26784],[15.1496,59.269291],[15.154261,59.268894],[15.172412,59.269734],[15.172558,59.268117],[15.175624,59.268142],[15.178496,59.273639],[15.179421,59.276275],[15.17705,59.27667],[15.174261,59.277046],[15.16769,59.277046],[15.161223,59.276481],[15.156622,59.276039],[15.152894,59.27528],[15.149487,59.27431],[15.147687,59.273415]]]},"properties":{"Område":"Slohaga/Västhaga/Älvtomta","station":"orebro","source":"orebro"},"id":24},{"type":"Feature","geometry":{"type":"Polygon","coordinates":[[[15.160232,59.25375],[15.170156,59.253474],[15.172236,59.254103],[15.173764,59.253496],[15.173552,59.251087],[15.178985,59.251608],[15.181744,59.252324],[15.184814,59.255128],[15.187305,59.257033],[15.192398,59.261611],[15.194858,59.263905],[15.196428,59.26499],[15.186878,59.264469],[15.179789,59.263472],[15.173879,59.26338],[15.17498,59.26786],[15.174037,59.266587],[15.172484,59.265201],[15.172955,59.262712],[15.171218,59.264016],[15.168729,59.261494],[15.167227,59.260233],[15.161068,59.256361],[15.152335,59.25171],[15.154428,59.251352],[15.160232,59.25375]]]},"properties":{"Område":"Aspholmen","station":"orebro","source":"orebro"},"id":24},{"type":"Feature","geometry":{"type":"Polygon","coordinates":[[[15.172164,59.263506],[15.174437,59.267301],[15.169891,59.267965],[15.16494,59.268898],[15.161044,59.268732],[15.159949,59.266969],[15.157679,59.263342],[15.149674,59.262503],[15.139698,59.266202],[15.133169,59.257275],[15.139064,59.251217],[15.143987,59.250267],[15.146549,59.249933],[15.147905,59.249419],[15.148809,59.249188],[15.148558,59.248674],[15.149362,59.248238],[15.149965,59.248392],[15.150969,59.248957],[15.155067,59.251794],[15.164044,59.256412],[15.168431,59.259969],[15.171275,59.262645],[15.172164,59.263506]]]},"properties":{"Område":"Bista/Åby","station":"orebro","source":"orebro"},"id":25},{"type":"Feature","geometry":{"type":"Polygon","coordinates":[[[15.151937,59.249927],[15.155488,59.242333],[15.151282,59.236923],[15.152067,59.236861],[15.156094,59.241176],[15.159275,59.240187],[15.161349,59.239909],[15.163524,59.239827],[15.166886,59.240074],[15.169,59.240321],[15.169826,59.240393],[15.180235,59.241433],[15.180195,59.241711],[15.170228,59.240836],[15.170896,59.243909],[15.176795,59.248426],[15.179181,59.250671],[15.174427,59.250881],[15.172959,59.251001],[15.172725,59.253657],[15.172343,59.253822],[15.169819,59.253357],[15.163333,59.253537],[15.158776,59.253013],[15.154852,59.251226],[15.151937,59.249927]]]},"properties":{"Område":"Nasta/Brunnsgärdet","station":"orebro","source":"orebro"},"id":26},{"type":"Feature","geometry":{"type":"Polygon","coordinates":[[[15.16225,59.24548],[15.160747,59.245796],[15.153877,59.24332],[15.149299,59.243725],[15.14737,59.23943],[15.135112,59.239741],[15.135177,59.239306],[15.143816,59.238597],[15.144213,59.235923],[15.14346,59.233612],[15.140113,59.229206],[15.142314,59.229123],[15.144181,59.231803],[15.147121,59.231035],[15.146949,59.229136],[15.148644,59.229125],[15.14931,59.23233],[15.15323,59.232741],[15.157899,59.232806],[15.163481,59.232795],[15.168871,59.234076],[15.170128,59.240558],[15.196517,59.242811],[15.196323,59.243316],[15.168215,59.240599],[15.165799,59.240414],[15.162839,59.240249],[15.160685,59.240414],[15.158933,59.240867],[15.158168,59.24097],[15.15873,59.243722],[15.16225,59.24548]]]},"properties":{"Område":"Södra Lindhult","station":"orebro","source":"orebro"},"id":28},{"type":"Feature","geometry":{"type":"Polygon","coordinates":[[[15.151173,59.236419],[15.147443,59.233625],[15.131496,59.230276],[15.125159,59.224462],[15.115857,59.21406],[15.112424,59.208787],[15.106759,59.20725],[15.106373,59.205887],[15.124066,59.206926],[15.14723,59.204912],[15.169138,59.208296],[15.180616,59.213357],[15.19568,59.208041],[15.196452,59.209117],[15.182333,59.214257],[15.174054,59.225325],[15.167389,59.23248],[15.14919,59.23269],[15.15111,59.23598],[15.151173,59.236419]]]},"properties":{"Område":"Marieberg","station":"orebro","source":"orebro"},"id":30},{"type":"Feature","geometry":{"type":"Polygon","coordinates":[[[15.163713,59.258023],[15.149331,59.250239],[15.140823,59.251114],[15.114504,59.253566],[15.099535,59.253147],[15.054789,59.25013],[15.048094,59.241747],[15.099592,59.237094],[15.119968,59.231578],[15.140791,59.230288],[15.137272,59.224667],[15.140662,59.223987],[15.145855,59.237214],[15.147893,59.23885],[15.152482,59.238467],[15.152906,59.239012],[15.146799,59.240265],[15.149031,59.246158],[15.151422,59.249342],[15.164944,59.257141],[15.163713,59.258023]]]},"properties":{"Område":"Berglunda/Pilängen","station":"orebro","source":"orebro"},"id":31},{"type":"Feature","geometry":{"type":"Polygon","coordinates":[[[15.245335,59.232392],[15.23348,59.227882],[15.233652,59.223345],[15.240388,59.219667],[15.251382,59.217251],[15.264255,59.218203],[15.272584,59.220983],[15.269299,59.227428],[15.257208,59.233346],[15.245335,59.232392]]]},"properties":{"Område":"Norra Bro","station":"orebro","source":"orebro"},"id":32},{"type":"Feature","geometry":{"type":"Polygon","coordinates":[[[15.241506,59.255163],[15.24084,59.25442],[15.242434,59.254193],[15.24441,59.254389],[15.244451,59.252688],[15.249352,59.251729],[15.25566,59.251164],[15.266076,59.251566],[15.271388,59.254664],[15.273325,59.255654],[15.273042,59.25651],[15.267959,59.256159],[15.267334,59.255891],[15.264026,59.257407],[15.262311,59.258438],[15.261242,59.259428],[15.261363,59.261552],[15.265337,59.261562],[15.280625,59.261373],[15.280646,59.261631],[15.261463,59.261806],[15.261282,59.263074],[15.26108,59.264806],[15.26002,59.265693],[15.257943,59.266147],[15.256329,59.266167],[15.253445,59.265992],[15.251791,59.265868],[15.250096,59.265837],[15.246031,59.265672],[15.244781,59.265621],[15.242683,59.265487],[15.24117,59.265374],[15.240888,59.265044],[15.244095,59.265219],[15.24813,59.265562],[15.250691,59.265613],[15.253394,59.265624],[15.255391,59.265881],[15.257691,59.265768],[15.259351,59.265492],[15.26038,59.264822],[15.260903,59.26367],[15.260701,59.262835],[15.260661,59.261948],[15.25939,59.261825],[15.256647,59.261866],[15.254952,59.261804],[15.25227,59.261866],[15.250071,59.261814],[15.248921,59.261742],[15.247509,59.261711],[15.245472,59.261485],[15.244645,59.261454],[15.243657,59.261485],[15.242134,59.261586],[15.240611,59.261687],[15.239905,59.261914],[15.239138,59.261976],[15.238089,59.261832],[15.235879,59.263508],[15.236161,59.263662],[15.23832,59.262363],[15.238884,59.262219],[15.239678,59.263194],[15.240928,59.264905],[15.241312,59.265719],[15.240888,59.266987],[15.240585,59.266874],[15.240706,59.265781],[15.240061,59.264524],[15.239052,59.262936],[15.238669,59.262214],[15.237923,59.261678],[15.238004,59.261266],[15.239205,59.260362],[15.240093,59.259743],[15.240355,59.259393],[15.241041,59.259568],[15.241525,59.259434],[15.241626,59.259279],[15.240718,59.259114],[15.241021,59.258207],[15.241067,59.256536],[15.241506,59.255163]]]},"properties":{"Område":"Almby","station":"orebro","source":"orebro"},"id":33},{"type":"Feature","geometry":{"type":"Polygon","coordinates":[[[15.169302,59.236281],[15.16907,59.234402],[15.180201,59.231635],[15.188144,59.229671],[15.191661,59.22973],[15.196802,59.23238],[15.204763,59.232004],[15.211681,59.236195],[15.206645,59.242637],[15.203437,59.243329],[15.199341,59.244179],[15.197563,59.245879],[15.197951,59.249777],[15.195207,59.249954],[15.193854,59.250666],[15.187825,59.250982],[15.185506,59.252563],[15.183612,59.2528],[15.182259,59.253077],[15.180249,59.251555],[15.179167,59.250211],[15.179708,59.248275],[15.179554,59.24699],[15.174529,59.2462],[15.170989,59.244663],[15.169302,59.236281]]]},"properties":{"Område":"Adolfsberg","station":"orebro","source":"orebro"},"id":33},{"type":"Feature","geometry":{"type":"Polygon","coordinates":[[[15.184014,59.285555],[15.1877,59.28376],[15.191509,59.282264],[15.19283,59.281576],[15.194749,59.280821],[15.197729,59.280609],[15.20084,59.280583],[15.201721,59.280622],[15.201643,59.281536],[15.201695,59.282132],[15.202788,59.284005],[15.203203,59.284587],[15.203385,59.285143],[15.203981,59.28615],[15.204395,59.287129],[15.204577,59.287619],[15.204451,59.289408],[15.204114,59.291552],[15.204062,59.292631],[15.203829,59.293597],[15.203725,59.293928],[15.206836,59.29447],[15.220884,59.295265],[15.220754,59.295582],[15.203259,59.294232],[15.197297,59.293504],[15.191537,59.291992],[15.188634,59.290656],[15.186094,59.288426],[15.183845,59.28608],[15.180222,59.287983],[15.175718,59.289972],[15.173449,59.290923],[15.170875,59.292808],[15.170502,59.292428],[15.172636,59.290802],[15.178664,59.288277],[15.184014,59.285555]]]},"properties":{"Område":"Baronbacken/Gamla Hjärsta","station":"orebro","source":"orebro"},"id":30},{"type":"Feature","geometry":{"type":"Polygon","coordinates":[[[15.224947,59.296459],[15.217825,59.295853],[15.213527,59.295247],[15.213363,59.294871],[15.217661,59.294871],[15.226246,59.295202],[15.232388,59.295572],[15.236031,59.29574],[15.247188,59.29745],[15.257851,59.303369],[15.267145,59.30596],[15.277009,59.30736],[15.279711,59.308196],[15.262478,59.306315],[15.258623,59.304625],[15.257477,59.306756],[15.260138,59.308741],[15.274271,59.312633],[15.260566,59.310404],[15.25617,59.307855],[15.252854,59.30704],[15.245486,59.304679],[15.242361,59.312539],[15.237408,59.312497],[15.234031,59.312592],[15.230391,59.312184],[15.227283,59.312441],[15.227155,59.313784],[15.227747,59.314856],[15.228279,59.315959],[15.2284,59.31709],[15.22837,59.31727],[15.228198,59.317973],[15.227796,59.318519],[15.22769,59.31877],[15.227717,59.319056],[15.227599,59.319796],[15.227273,59.319826],[15.22748,59.318602],[15.227806,59.317923],[15.228191,59.317545],[15.22825,59.316865],[15.228043,59.316276],[15.227717,59.315461],[15.227391,59.314494],[15.226829,59.313603],[15.226237,59.312636],[15.219814,59.312168],[15.22197,59.3023],[15.222273,59.297425],[15.224947,59.296459]]]},"properties":{"Område":"Bettorp","station":"orebro","source":"orebro"},"id":33},{"type":"Feature","geometry":{"type":"Polygon","coordinates":[[[15.217978,59.245058],[15.218253,59.244864],[15.221425,59.245212],[15.225077,59.239464],[15.227877,59.23151],[15.231954,59.232231],[15.236435,59.230428],[15.242582,59.232004],[15.247012,59.232802],[15.252927,59.233562],[15.252902,59.232545],[15.25333,59.232017],[15.253632,59.233124],[15.253732,59.233858],[15.253103,59.235751],[15.251064,59.237463],[15.249755,59.239317],[15.248384,59.241596],[15.246975,59.242741],[15.244533,59.243346],[15.239323,59.243964],[15.23578,59.24441],[15.239797,59.249932],[15.23902,59.25029],[15.234904,59.245939],[15.234711,59.245083],[15.23074,59.245342],[15.226234,59.245985],[15.224196,59.245895],[15.217978,59.245058]]]},"properties":{"Område":"Brickebacken","station":"orebro","source":"orebro"},"id":33},{"type":"Feature","geometry":{"type":"Polygon","coordinates":[[[15.205553,59.243524],[15.225207,59.245733],[15.227656,59.231683],[15.22409,59.22548],[15.227094,59.225216],[15.23527,59.24448],[15.241517,59.24348],[15.245286,59.243005],[15.247073,59.242426],[15.248307,59.241177],[15.250216,59.238211],[15.250971,59.23713],[15.251626,59.236499],[15.254092,59.237258],[15.258041,59.241458],[15.257783,59.244409],[15.251315,59.249053],[15.249024,59.251434],[15.24701,59.252103],[15.244795,59.252309],[15.243159,59.253982],[15.237521,59.253339],[15.23664,59.253004],[15.236338,59.252515],[15.238427,59.250456],[15.236705,59.247838],[15.220218,59.245508],[15.205743,59.244027],[15.205553,59.243524]]]},"properties":{"Område":"Brickeberg","station":"orebro","source":"orebro"},"id":34},{"type":"Feature","geometry":{"type":"Polygon","coordinates":[[[15.197021,59.265878],[15.198859,59.265441],[15.200621,59.265222],[15.203666,59.265081],[15.206938,59.265171],[15.211016,59.266354],[15.214036,59.26719],[15.214943,59.266599],[15.21527,59.266071],[15.217938,59.266341],[15.220304,59.266946],[15.222242,59.269133],[15.223022,59.270149],[15.224281,59.27056],[15.225808,59.272494],[15.224953,59.273845],[15.22606,59.274938],[15.227168,59.276674],[15.234492,59.275118],[15.236405,59.275156],[15.236556,59.275439],[15.22631,59.277333],[15.225711,59.277097],[15.224596,59.277163],[15.223793,59.27741],[15.222585,59.277526],[15.222192,59.277523],[15.22152,59.277636],[15.22025,59.277904],[15.219024,59.278146],[15.216963,59.278489],[15.216128,59.27858],[15.215272,59.278765],[15.214102,59.279172],[15.212793,59.279442],[15.211736,59.27966],[15.211283,59.278272],[15.209773,59.276265],[15.207608,59.27442],[15.205418,59.272427],[15.203708,59.271167],[15.200083,59.26817],[15.197021,59.265878]]]},"properties":{"Område":"Centrum","station":"orebro","source":"orebro"},"id":34},{"type":"Feature","geometry":{"type":"Polygon","coordinates":[[[15.203877,59.293769],[15.202237,59.298306],[15.201181,59.298224],[15.202756,59.294704],[15.203905,59.291009],[15.204077,59.288822],[15.204278,59.288],[15.203837,59.286228],[15.203492,59.285816],[15.202975,59.284848],[15.202256,59.283761],[15.201135,59.281485],[15.20102,59.280795],[15.201567,59.28059],[15.203837,59.280472],[15.206913,59.280355],[15.208666,59.280061],[15.210218,59.279635],[15.211627,59.279283],[15.215995,59.284392],[15.21532,59.286246],[15.214932,59.286829],[15.21453,59.287284],[15.213294,59.288077],[15.211109,59.288444],[15.20904,59.29432],[15.220479,59.295098],[15.226946,59.295377],[15.230007,59.29548],[15.231538,59.295532],[15.233069,59.295583],[15.233097,59.295781],[15.233126,59.295979],[15.232138,59.295959],[15.23115,59.295939],[15.230162,59.295918],[15.229668,59.295908],[15.229174,59.295898],[15.225222,59.295817],[15.215162,59.295333],[15.204585,59.29454],[15.201981,59.294325],[15.198458,59.293781],[15.194783,59.29297],[15.188457,59.290697],[15.185942,59.288309],[15.184247,59.285977],[15.184712,59.28574],[15.188239,59.289706],[15.191164,59.291214],[15.194435,59.292189],[15.199206,59.293256],[15.20142,59.293463],[15.202483,59.293629],[15.203877,59.293769]]]},"properties":{"Område":"Holmen","station":"orebro","source":"orebro"},"id":34},{"type":"Feature","geometry":{"type":"Polygon","coordinates":[[[15.185196,59.285792],[15.187036,59.288547],[15.189967,59.290219],[15.192462,59.291716],[15.195331,59.292465],[15.198075,59.293038],[15.201051,59.293538],[15.204949,59.293984],[15.209783,59.294461],[15.210562,59.294445],[15.211311,59.293347],[15.211454,59.290519],[15.214213,59.288185],[15.214472,59.287172],[15.215018,59.28679],[15.215938,59.286893],[15.216911,59.285594],[15.215352,59.283412],[15.214229,59.279557],[15.215071,59.279238],[15.215695,59.282217],[15.217597,59.284415],[15.21925,59.285753],[15.2224,59.286948],[15.223555,59.28839],[15.223641,59.288728],[15.223727,59.289124],[15.22419,59.289684],[15.22459,59.290211],[15.225279,59.290842],[15.225739,59.291429],[15.226429,59.293043],[15.227665,59.294174],[15.228585,59.295318],[15.228644,59.295495],[15.2287,59.295586],[15.22872,59.295716],[15.228966,59.295894],[15.228914,59.295893],[15.228656,59.295887],[15.228634,59.295887],[15.228425,59.295883],[15.227553,59.295865],[15.226483,59.295843],[15.221572,59.295641],[15.215022,59.29564],[15.208504,59.295082],[15.205074,59.294684],[15.201581,59.294254],[15.197558,59.293745],[15.193117,59.292799],[15.188283,59.290554],[15.185695,59.288675],[15.183886,59.286126],[15.185196,59.285792]]]},"properties":{"Område":"Hagaby","station":"orebro","source":"orebro"},"id":35},{"type":"Feature","geometry":{"type":"Polygon","coordinates":[[[15.211511,59.349033],[15.208481,59.348808],[15.204847,59.344848],[15.20617,59.341],[15.209087,59.337909],[15.212887,59.334312],[15.217185,59.332289],[15.22611,59.331588],[15.230021,59.330691],[15.258053,59.337321],[15.261294,59.349053],[15.244387,59.352872],[15.23602,59.35424],[15.219715,59.355219],[15.211511,59.349033]]]},"properties":{"Område":"Hovsta","station":"orebro","source":"orebro"},"id":35},{"type":"Feature","geometry":{"type":"Polygon","coordinates":[[[15.176581,59.258303],[15.177613,59.257637],[15.179254,59.257153],[15.181521,59.256608],[15.183011,59.256098],[15.184161,59.25544],[15.183941,59.254731],[15.182232,59.253165],[15.18537,59.25276],[15.187775,59.251462],[15.190959,59.25089],[15.193906,59.250855],[15.195229,59.25013],[15.196624,59.249987],[15.197869,59.249938],[15.198715,59.248517],[15.198343,59.247322],[15.1982,59.245748],[15.199019,59.244826],[15.200025,59.244156],[15.201804,59.243654],[15.20185,59.243917],[15.198949,59.245544],[15.198885,59.247305],[15.201817,59.24438],[15.207655,59.244223],[15.21136,59.244602],[15.216205,59.245097],[15.21688,59.246992],[15.21597,59.24893],[15.214537,59.251301],[15.214977,59.252912],[15.214842,59.254211],[15.216821,59.256592],[15.216998,59.256855],[15.217033,59.257145],[15.215563,59.257453],[15.215226,59.25777],[15.213969,59.258023],[15.211666,59.259155],[15.210286,59.260543],[15.210197,59.261095],[15.210099,59.261908],[15.209621,59.262859],[15.20932,59.263239],[15.208806,59.263366],[15.207956,59.262922],[15.20684,59.26256],[15.205104,59.262451],[15.203333,59.262379],[15.201863,59.262442],[15.200534,59.262596],[15.199755,59.262705],[15.198444,59.263529],[15.198019,59.263746],[15.196956,59.263701],[15.19646,59.263284],[15.195698,59.263058],[15.194125,59.262423],[15.192638,59.261736],[15.189131,59.258929],[15.185159,59.255267],[15.182368,59.256582],[15.179305,59.257335],[15.176581,59.258303]]]},"properties":{"Område":"Ladugårdsängen/Tullängen","station":"orebro","source":"orebro"},"id":35},{"type":"Feature","geometry":{"type":"Polygon","coordinates":[[[15.198025,59.265659],[15.196201,59.265052],[15.19698,59.263975],[15.197263,59.263649],[15.199938,59.26249],[15.204154,59.262128],[15.20713,59.262427],[15.208583,59.263042],[15.209769,59.263613],[15.211767,59.264461],[15.212568,59.263794],[15.213547,59.262565],[15.213963,59.262778],[15.21236,59.264537],[15.215634,59.265983],[15.217636,59.263223],[15.217977,59.263302],[15.216115,59.266062],[15.220505,59.267136],[15.219319,59.267439],[15.217127,59.267876],[15.214205,59.267364],[15.212593,59.267066],[15.210981,59.266604],[15.210162,59.266342],[15.208016,59.267406],[15.205462,59.26881],[15.205376,59.268492],[15.209754,59.266221],[15.2072,59.265587],[15.205535,59.265334],[15.20325,59.265334],[15.20109,59.265551],[15.198025,59.265659]]]},"properties":{"Område":"Södermalm","station":"orebro","source":"orebro"},"id":36},{"type":"Feature","geometry":{"type":"Polygon","coordinates":[[[15.217109,59.258101],[15.214724,59.257632],[15.21481,59.257205],[15.216539,59.256601],[15.215415,59.254834],[15.215156,59.254422],[15.214724,59.252184],[15.214551,59.251389],[15.215871,59.250492],[15.215893,59.250174],[15.216215,59.249647],[15.21921,59.24559],[15.233381,59.247694],[15.234604,59.249098],[15.234754,59.250854],[15.234729,59.251898],[15.235853,59.252457],[15.236688,59.253061],[15.239424,59.254283],[15.241186,59.254371],[15.242168,59.254337],[15.24352,59.254534],[15.24451,59.25487],[15.24462,59.25521],[15.246599,59.255922],[15.24814,59.2561],[15.24846,59.25622],[15.246191,59.256114],[15.24209,59.255399],[15.241889,59.256901],[15.241745,59.258285],[15.241543,59.258962],[15.241054,59.259463],[15.239815,59.260376],[15.238864,59.26123],[15.238144,59.261657],[15.237482,59.26148],[15.237165,59.260714],[15.236243,59.259419],[15.235322,59.259095],[15.233536,59.25855],[15.23175,59.258005],[15.228927,59.257431],[15.227487,59.257225],[15.224376,59.257402],[15.218183,59.258344],[15.217924,59.259124],[15.217523,59.25951],[15.216602,59.259141],[15.217109,59.258101]]]},"properties":{"Område":"Sörbyängen/Tybble","station":"orebro","source":"orebro"},"id":36},{"type":"Feature","properties":{"Område":"Mosås","station":"orebro","source":"orebro"},"geometry":{"type":"Polygon","coordinates":[[[15.144463,59.207742],[15.143677,59.199411],[15.144201,59.19693],[15.135602,59.19673],[15.129807,59.196177],[15.126304,59.195992],[15.125944,59.195221],[15.134195,59.195338],[15.139891,59.195992],[15.143951,59.196244],[15.145163,59.196193],[15.14621,59.194081],[15.14477,59.192689],[15.146281,59.187381],[15.156556,59.182502],[15.159404,59.182385],[15.163038,59.19565],[15.163879,59.201846],[15.171585,59.203875],[15.176856,59.202736],[15.180294,59.202333],[15.180425,59.203104],[15.173887,59.204696],[15.170613,59.20478],[15.163934,59.203003],[15.163148,59.202399],[15.160529,59.202684],[15.158761,59.202835],[15.159678,59.210581],[15.158925,59.210682],[15.158401,59.206257],[15.157976,59.202871],[15.15444,59.202586],[15.151952,59.201413],[15.150053,59.200306],[15.145796,59.200089],[15.14524,59.200122],[15.14429,59.202234],[15.14452,59.204497],[15.144454,59.204548],[15.144463,59.207742]]]}},{"type":"Feature","properties":{"Område":"Kumla","station":"byrsta","source":"kumla"},"geometry":{"type":"Polygon","coordinates":[[[15.177535,59.116839],[15.166111,59.131303],[15.157512,59.148794],[15.126298,59.16513],[15.11004,59.171862],[15.099632,59.157941],[15.076482,59.135731],[15.07271,59.121449],[15.069292,59.102326],[15.110685,59.099077],[15.135212,59.100023],[15.155295,59.106891],[15.177535,59.116839]]]}},{"type":"Feature","properties":{"Område":"Hallsberg","station":"byrsta","source":"hallsberg"},"geometry":{"type":"Polygon","coordinates":[[[15.01026,59.058416],[15.021445,59.045507],[15.069466,59.045676],[15.117168,59.041962],[15.157096,59.058349],[15.162038,59.07025],[15.140188,59.069047],[15.147228,59.076036],[15.14836,59.07841],[15.138645,59.07511],[15.12198,59.074729],[15.102211,59.088963],[15.085824,59.092036],[15.058642,59.086223],[15.044403,59.071007],[15.01026,59.058416]]]}},{"type":"Feature","properties":{"Område":"Hällabrottet","station":"byrsta","source":"kumla"},"geometry":{"type":"Polygon","coordinates":[[[15.178299,59.114301],[15.175896,59.122935],[15.235634,59.13421],[15.264301,59.136499],[15.287476,59.136323],[15.292797,59.127428],[15.30138,59.113684],[15.256577,59.093322],[15.227566,59.086356],[15.203705,59.097113],[15.180702,59.109101],[15.178299,59.114301]]]}},{"type":"Feature","properties":{"Område":"Sannahed","station":"byrsta","source":"kumla"},"geometry":{"type":"Polygon","coordinates":[[[15.147743,59.100023],[15.160704,59.101301],[15.172548,59.098304],[15.172291,59.091162],[15.16654,59.085915],[15.15793,59.08552],[15.144696,59.090368],[15.147743,59.100023]]]}},{"type":"Feature","properties":{"Område":"Östansjö","station":"byrsta","source":"hallsberg"},"geometry":{"type":"Polygon","coordinates":[[[14.971533,59.053048],[14.991274,59.052386],[14.996424,59.045676],[14.993677,59.038788],[14.978657,59.035477],[14.963379,59.036713],[14.957371,59.043557],[14.971533,59.053048]]]}}]}